[{"OBJECT_NAME":"OBJECT A","OBJECT_ID":"2023-189A","EPOCH":"2026-03-09T22:59:06.381600","MEAN_MOTION":15.32403275,"ECCENTRICITY":0.00094831,"INCLINATION":97.4458,"RA_OF_ASC_NODE":86.5997,"ARG_OF_PERICENTER":249.5377,"MEAN_ANOMALY":110.4847,"EPHEMERIS_TYPE":0,"CLASSIFICATION_TYPE":"U","NORAD_CAT_ID":58502,"ELEMENT_SET_NO":999,"REV_AT_EPOCH":12601,"BSTAR":0.00019874471,"MEAN_MOTION_DOT":6.146e-5,"MEAN_MOTION_DDOT":0},{"OBJECT_NAME":"STARLINK-34446","OBJECT_ID":"2025-198D","EPOCH":"2026-03-09T22:10:48.791712","MEAN_MOTION":15.30184011,"ECCENTRICITY":0.00011231,"INCLINATION":53.158,"RA_OF_ASC_NODE":270.0765,"ARG_OF_PERICENTER":189.3173,"MEAN_ANOMALY":170.7807,"EPHEMERIS_TYPE":0,"CLASSIFICATION_TYPE":"U","NORAD_CAT_ID":65495,"ELEMENT_SET_NO":999,"REV_AT_EPOCH":2865,"BSTAR":0.0010239839,"MEAN_MOTION_DOT":0.00030076,"MEAN_MOTION_DDOT":0}]
